#dP2024 12 30  0  0  0.00000000      97 __u+U IGS20 FIT  IAC
## 2347  86400.00000000   900.00000000 60674 0.0000000000000
+  117   C06C07C08C09C10C11C12C13C14C16C19C20C21C22C23C24C25
+        C26C27C28C29C30C32C33C34C35C36C37C38C39C40C41C42C43
+        C44C45E02E03E04E05E06E07E08E09E10E11E12E13E14E15E18
+        E19E21E24E25E26E27E29E30E31E33E34E36G02G03G04G05G06
+        G07G08G09G10G11G12G13G14G15G16G17G18G19G20G21G22G23
+        G24G25G26G27G28G29G30G31G32J02J04R01R02R03R04R05R07
+        R08R09R11R12R14R15R16R17R18R19R20R21R22R24R26  0  0
++         7  7  7  7  7  6  7  7  9  7  5  5  5  6  6  6  5
++         6  6  6  6  8  6  5  6  6  5  5  6  6  6  6  6  6
++         6  6  4  4  4  4  4  4  4  4  4  4  4  4  4  4  5
++         4  4  4  4  4  4  4  4  4  4  4  4  3  3  3  4  3
++         3  4  3  3  3  3  3  3  3  4  3  3  3  3  3  3  3
++         3  3  3  3  3  3  3  3  3 10 11  7  6  6  6  6  7
++         7  6  6  6  7  6  6  7  7  7  7  6  6  7  7  0  0
%c M  cc GPS ccc cccc cccc cccc cccc ccccc ccccc ccccc ccccc
%c cc cc ccc ccc cccc cccc cccc cccc ccccc ccccc ccccc ccccc
%f  1.2500000  1.025000000  0.00000000000  0.000000000000000
%f  0.0000000  0.000000000  0.00000000000  0.000000000000000
%i    0    0    0    0      0      0      0      0         0
%i    0    0    0    0      0      0      0      0         0
/* INFORMATION & ANALYSIS CENTER (IAC)            FINAL DATA
/* S/V CLOCKS ARE ALIGNED TO GNSS TIME                      
/* G:C1WC2W R:C1PC2P E:C1XC5X C:C2IC6I J:C1CC2S             
/* PCV:IGS20_2317 OL/AL:FES2004  NONE     YN ORB:CoN CLK:CoN
*  2024 12 30  1 15  0.00000000
PC06  -1261.555637  30929.136691  28848.153200    604.939221
PC07 -16364.410726  29431.633552 -25375.485862    -82.776549
PC08 -12134.927159  40234.964329   1127.952959    247.559192
PC09   5235.919891  35028.112788  23870.976521   -857.549103
PC10  -8736.198563  29660.825524 -28494.354804   -363.874033
PC11   5791.264760 -14459.200397  23229.919846    312.872341
PC12  22438.193593  -2010.536926  16518.731236   -226.302971
PC13  -7940.085416  40858.330919   5863.893792     73.116902
PC14  14364.228703 -20768.291007 -11811.131921   -599.333185
PC16  -2751.144036  29637.094357  30326.390978    -16.208437
PC19  -5715.282195  19925.971281  18716.041082   -965.536287
PC20 -19954.268342  18940.473544   4770.095536   -882.068704
PC21  23531.352139  -6192.110038  13655.677833   -906.910434
PC22  12764.460275   9577.333373  22885.612880    218.655534
PC23 -12228.595698 -21421.575173  13053.142055   -933.866460
PC24  11396.250210 -17426.497434 -18617.736090    713.120569
PC25  -1279.257598 -27615.372581  -3917.598356    602.342096
PC26  16622.889808   2131.178866 -22335.051360   -398.344582
PC27 -26132.657537  -4536.467233  -8676.193442    416.507826
PC28 -22802.103156 -14730.939506   6471.671637    325.509909
PC29   4005.159412  17645.551368 -21246.944928    382.117934
PC30 -16685.586773   9121.494663 -20421.879185     66.240644
PC32 -23467.476677   6320.766005 -13711.541383   -859.483018
PC33   5651.237203 -19988.056226 -18627.920016   -947.095385
PC34  15084.342390 -10295.735685  21095.559854    596.325357
PC35  22907.238714  14263.310555  -7201.118747    167.880750
PC36    902.313943  27654.154382   3576.486981    244.841608
PC37 -16578.160383  -3034.184478  22243.491010   -899.560052
PC38 -15391.577770  38493.364800  -7176.730788    199.918126
PC39  -7369.175671  25371.381317  32958.246311    -10.668521
PC40 -22436.043523  23253.208936 -27233.919599   -111.443507
PC41 -11961.036929 -10290.384440 -22965.369164   -883.371409
PC42  20941.113889 -18198.900392  -2813.073032   -552.285857
PC43  -2930.535404 -17568.819089  21469.293944     96.798114
PC44  26364.079584   3573.782988   8460.808216    695.978337
PC45  11806.936260  21868.438929 -12679.643116   -198.493691
PE02 -19617.502614  18728.846670  11819.702537    186.118026
PE03 -25187.243203   9396.536374  12390.506069   -163.213851
PE04   6298.472875 -16638.782887 -23653.517107   -119.400988
PE05 -28829.323214  -3203.671552  -5894.848496   4814.593122
PE06  -5254.093612 -16695.320092 -23885.128878    -64.402698
PE07  15353.607364  14122.645516  20998.354811   -160.848888
PE08  -7144.233366  16404.557776  23577.445364   -392.069092
PE09 -15292.117251 -14032.987253 -21110.667485   -718.702646
PE10  -9284.565487 -26526.292660   9301.256476   -679.767260
PE11 -16014.549601 -24861.911462  -1084.888174    -23.401955
PE12  -1976.889017 -24212.009716  16905.499770  -1362.944040
PE13  15738.197664  25070.501557    525.138494    -28.514473
PE14 -27515.945823  -7623.434916  10827.728939    527.667639
PE15   1438.144057  23849.330173 -17464.492051   -147.983518
PE18  16507.171150  12676.194118 -15658.557085    940.275635
PE19  26242.554211  -8196.186864 -10971.369318   1158.338161
PE21  18276.333028    216.626295 -23291.599260   -637.092812
PE24  -6070.544328 -19702.583374  21227.864044  -1183.224043
PE25 -18091.517257   -730.739718  23412.359705     12.754669
PE26  20646.439242  11112.996359  18081.104902   -168.893039
PE27   6133.171361  19623.772423 -21294.498926   -542.752341
PE29  28929.013437   3059.172753   5508.516944    -57.796545
PE30  -9411.837663  27195.168959  -6906.666561  -1081.527429
PE31   9483.018451 -27219.324858   6756.313683    -48.537983
PE33  13736.731542  -8218.632058  24909.949917     16.422617
PE34 -13472.590995   8641.297804 -24893.340174   -154.624877
PE36 -20553.227419 -11664.187722 -17806.060193   -331.869629
PG02  21173.645670  10802.128256  12707.707189   -280.231536
PG03  15506.778625   -162.025368  21379.227604    635.561636
PG04  26287.568502    935.362050   4256.401264    503.876928
PG05  -8774.323324 -15223.272050 -20073.242146   -197.500689
PG06  -1797.509378 -20952.438138  16222.376586    -81.334013
PG07  15501.919698  -3965.819305 -20731.949027    -14.246704
PG08  21302.513672   7299.655037 -14564.454849    449.861848
PG09  25413.640661  -6591.097706  -4359.011786    507.917742
PG10  -9967.198305  24402.115906   1128.583085   -255.019790
PG11 -11388.574400 -23473.953441   5177.487389   -752.612652
PG12 -14685.620162  -4222.760171  21433.590141   -561.399715
PG13 -13421.086508 -13343.406727 -18966.740478    691.748042
PG14  12814.376430 -22945.180024  -2765.754778    570.060019
PG15 -22034.218861  -4995.385659 -14599.048057    245.534372
PG16   3580.957878  19490.099271 -17817.897540    -90.719389
PG17  15128.420852 -13187.418801  17909.627530    497.524192
PG18 -13585.886887   6513.640675 -21855.665609   -659.404485
PG19   3906.234229 -14888.267844  21458.608267    579.950365
PG20  -2385.203248 -24031.419520 -11122.249040    367.484111
PG21  20820.202376  16209.811412   6753.494498     99.115906
PG22   8855.650927 -24622.065950   5824.585700    -89.419545
PG23 -15940.632988  16920.601462 -12585.124829    393.599267
PG24 -21207.572828 -12872.230534   9546.217822   -469.090078
PG25 -17304.430152  10250.732397  16853.022678    497.482731
PG26  -2134.922479  25075.407273  -8032.344086    -27.829602
PG27  10911.703603  13264.382193 -20674.086685    -33.683470
PG28    569.388955  20196.723855  17225.281979   -521.909081
PG29 -25852.126822   4250.946271  -4796.455670   -551.676372
PG30   6817.842038 -15699.579806 -20096.409746   -250.516884
PG31   8150.147507  23162.851019   9395.089965   -218.981711
PG32 -10042.358929  14979.391008  19659.076274   -550.745506
PJ02 -34984.540927  23474.537012   7916.824627     -0.235415
PJ04 -27371.228513  31951.776038  10267.162322     21.290348
PR01 -20026.926424  14366.003970   6590.333328    109.477019
PR02  -7119.501757  13891.959177  20195.445410    -38.830769
PR03  10756.518412   6244.147226  22328.977379    114.102383
PR04  21931.048234  -4420.463047  12303.817946    270.493659
PR05  21699.765211 -12725.702197  -4304.890252    142.968496
PR07 -10963.043420  -6062.879991 -22167.864617     97.889979
PR08 -21977.678282   4792.697073 -11926.167076     -6.200798
PR09    954.484228 -25432.377406   -825.157752    229.088873
PR11 -10663.549340  -4110.443420  22808.001588      2.508979
PR12  -9071.979940  16655.517546  17066.529018     49.007551
PR14   6616.385424  19337.380696 -15271.121475     27.511195
PR15  10948.195595   2183.174164 -22924.169584     72.688320
PR16   8951.487009 -16540.982503 -17211.962111     32.048692
PR17  18945.982867  15933.822685  -6053.906038    152.905533
PR18  21544.493265   9069.536276  10292.526903    179.336880
PR19  14759.730625   -758.079271  20796.049636   -303.703317
PR20  -4035.780487 -14439.717707  20639.272011   -123.936516
PR21 -18209.702224 -16344.951098   7257.055212   -163.781951
PR22 -21192.188127  -8569.531780 -11275.101706    -53.354661
PR24   5013.887497  14761.961998 -20161.288181    -86.076963
PR26 -21256.457812   3713.229990 -13594.802414   -132.303031
EOF
